start=new Date('2022-06-26T00:00:00.000Z').valueOf();
sats=[{"CLASSIFICATION_TYPE":"U","OBJECT_NAME":"STARLINK-4018","MEAN_MOTION_DDOT":"0.0000000000000","ECCENTRICITY":"0.00015250","GP_ID":"206858631","MEAN_ANOMALY":"44.3941","APOAPSIS":"371.388","SITE":"AFETR","INCLINATION":"53.2175","MEAN_MOTION_DOT":"-0.01051860","SEMIMAJOR_AXIS":"6748.493","COUNTRY_CODE":"US","MEAN_ELEMENT_THEORY":"SGP4","TLE_LINE1":"1 52697U 22053AT  22176.91667824 -.01051860  00000-0 -11252-1 0  9997","OBJECT_ID":"2022-053AT","REF_FRAME":"TEME","MEAN_MOTION":"15.66002747","CENTER_NAME":"EARTH","ELEMENT_SET_NO":"999","TLE_LINE2":"2 52697  53.2175 107.4651 0001525  36.2267  44.3941 15.66002747  1304","OBJECT_TYPE":"PAYLOAD","FILE":"3502557","DECAY_DATE":null,"RCS_SIZE":"LARGE","LAUNCH_DATE":"2022-05-18","PERIOD":"91.954","TIME_SYSTEM":"UTC","REV_AT_EPOCH":"130","PERIAPSIS":"369.329","ARG_OF_PERICENTER":"36.2267","RA_OF_ASC_NODE":"107.4651","EPHEMERIS_TYPE":"0","EPOCH":"2022-06-25T22:00:00.999936","NORAD_CAT_ID":"52697","BSTAR":"-0.01125200000000"},{"OBJECT_NAME":"STARLINK-4030","CLASSIFICATION_TYPE":"U","MEAN_ANOMALY":"35.6665","APOAPSIS":"371.346","MEAN_MOTION_DDOT":"0.0000000000000","ECCENTRICITY":"0.00013760","GP_ID":"206858358","MEAN_MOTION_DOT":"-0.01052111","SITE":"AFETR","INCLINATION":"53.2174","REF_FRAME":"TEME","SEMIMAJOR_AXIS":"6748.552","COUNTRY_CODE":"US","TLE_LINE1":"1 52698U 22053AU  22176.91667824 -.01052111  00000-0 -11265-1 0  9992","MEAN_ELEMENT_THEORY":"SGP4","OBJECT_ID":"2022-053AU","TLE_LINE2":"2 52698  53.2174 107.4548 0001376  42.9376  35.6665 15.65982229  1305","OBJECT_TYPE":"PAYLOAD","MEAN_MOTION":"15.65982229","CENTER_NAME":"EARTH","ELEMENT_SET_NO":"999","DECAY_DATE":null,"FILE":"3502557","RCS_SIZE":"LARGE","LAUNCH_DATE":"2022-05-18","PERIOD":"91.955","TIME_SYSTEM":"UTC","EPHEMERIS_TYPE":"0","RA_OF_ASC_NODE":"107.4548","NORAD_CAT_ID":"52698","EPOCH":"2022-06-25T22:00:00.999936","BSTAR":"-0.01126500000000","ARG_OF_PERICENTER":"42.9376","PERIAPSIS":"369.489","REV_AT_EPOCH":"130"},{"MEAN_ELEMENT_THEORY":"SGP4","TLE_LINE1":"1 52699U 22053AV  22176.91667824 -.00018864  00000-0 -12994-3 0  9991","COUNTRY_CODE":"US","SEMIMAJOR_AXIS":"6727.725","OBJECT_ID":"2022-053AV","REF_FRAME":"TEME","SITE":"AFETR","INCLINATION":"53.2158","MEAN_MOTION_DOT":"-0.00018864","MEAN_MOTION_DDOT":"0.0000000000000","GP_ID":"206858461","ECCENTRICITY":"0.00018510","MEAN_ANOMALY":"96.1289","APOAPSIS":"350.835","CLASSIFICATION_TYPE":"U","OBJECT_NAME":"STARLINK-3987","PERIAPSIS":"348.344","ARG_OF_PERICENTER":"27.0192","REV_AT_EPOCH":"130","RA_OF_ASC_NODE":"107.3529","EPHEMERIS_TYPE":"0","BSTAR":"-0.00012994000000","EPOCH":"2022-06-25T22:00:00.999936","NORAD_CAT_ID":"52699","RCS_SIZE":"LARGE","LAUNCH_DATE":"2022-05-18","PERIOD":"91.530","TIME_SYSTEM":"UTC","FILE":"3502557","DECAY_DATE":null,"CENTER_NAME":"EARTH","MEAN_MOTION":"15.73259865","ELEMENT_SET_NO":"999","TLE_LINE2":"2 52699  53.2158 107.3529 0001851  27.0192  96.1289 15.73259865  1300","OBJECT_TYPE":"PAYLOAD"},{"INCLINATION":"53.2175","SITE":"AFETR","MEAN_MOTION_DOT":"-0.01052201","OBJECT_ID":"2022-053AW","SEMIMAJOR_AXIS":"6748.512","COUNTRY_CODE":"US","MEAN_ELEMENT_THEORY":"SGP4","TLE_LINE1":"1 52700U 22053AW  22176.91667824 -.01052201  00000-0 -11261-1 0  9992","REF_FRAME":"TEME","CLASSIFICATION_TYPE":"U","OBJECT_NAME":"STARLINK-4034","ECCENTRICITY":"0.00010700","GP_ID":"206858255","MEAN_MOTION_DDOT":"0.0000000000000","APOAPSIS":"371.100","MEAN_ANOMALY":"7.1430","LAUNCH_DATE":"2022-05-18","PERIOD":"91.954","TIME_SYSTEM":"UTC","RCS_SIZE":"LARGE","PERIAPSIS":"369.655","ARG_OF_PERICENTER":"72.8055","REV_AT_EPOCH":"130","EPOCH":"2022-06-25T22:00:00.999936","NORAD_CAT_ID":"52700","BSTAR":"-0.01126100000000","EPHEMERIS_TYPE":"0","RA_OF_ASC_NODE":"107.4619","ELEMENT_SET_NO":"999","MEAN_MOTION":"15.65996111","CENTER_NAME":"EARTH","OBJECT_TYPE":"PAYLOAD","TLE_LINE2":"2 52700  53.2175 107.4619 0001070  72.8055   7.1430 15.65996111  1305","FILE":"3502557","DECAY_DATE":null},{"EPHEMERIS_TYPE":"0","RA_OF_ASC_NODE":"107.3498","EPOCH":"2022-06-25T22:00:00.999936","NORAD_CAT_ID":"52701","BSTAR":"0.00015919000000","ARG_OF_PERICENTER":"24.9635","PERIAPSIS":"348.220","REV_AT_EPOCH":"130","RCS_SIZE":"LARGE","LAUNCH_DATE":"2022-05-18","PERIOD":"91.531","TIME_SYSTEM":"UTC","DECAY_DATE":null,"FILE":"3502557","TLE_LINE2":"2 52701  53.2160 107.3498 0002099  24.9635  99.2301 15.73245075  1302","OBJECT_TYPE":"PAYLOAD","MEAN_MOTION":"15.73245075","CENTER_NAME":"EARTH","ELEMENT_SET_NO":"999","REF_FRAME":"TEME","COUNTRY_CODE":"US","SEMIMAJOR_AXIS":"6727.767","TLE_LINE1":"1 52701U 22053AX  22176.91667824  .00021822  00000-0  15919-3 0  9991","MEAN_ELEMENT_THEORY":"SGP4","OBJECT_ID":"2022-053AX","MEAN_MOTION_DOT":"0.00021822","SITE":"AFETR","INCLINATION":"53.2160","MEAN_ANOMALY":"99.2301","APOAPSIS":"351.044","MEAN_MOTION_DDOT":"0.0000000000000","ECCENTRICITY":"0.00020990","GP_ID":"206858566","OBJECT_NAME":"STARLINK-4003","CLASSIFICATION_TYPE":"U"},{"DECAY_DATE":null,"FILE":"3502557","OBJECT_TYPE":"PAYLOAD","TLE_LINE2":"2 52702  53.2175 107.4688 0001141  63.0032  18.2896 15.66010004  1307","ELEMENT_SET_NO":"999","MEAN_MOTION":"15.66010004","CENTER_NAME":"EARTH","EPOCH":"2022-06-25T22:00:00.999936","NORAD_CAT_ID":"52702","BSTAR":"-0.01125600000000","EPHEMERIS_TYPE":"0","RA_OF_ASC_NODE":"107.4688","PERIAPSIS":"369.568","ARG_OF_PERICENTER":"63.0032","REV_AT_EPOCH":"130","LAUNCH_DATE":"2022-05-18","PERIOD":"91.953","TIME_SYSTEM":"UTC","RCS_SIZE":"LARGE","APOAPSIS":"371.108","MEAN_ANOMALY":"18.2896","ECCENTRICITY":"0.00011410","GP_ID":"206858012","MEAN_MOTION_DDOT":"0.0000000000000","OBJECT_NAME":"STARLINK-4033","CLASSIFICATION_TYPE":"U","REF_FRAME":"TEME","OBJECT_ID":"2022-053AY","COUNTRY_CODE":"US","SEMIMAJOR_AXIS":"6748.473","MEAN_ELEMENT_THEORY":"SGP4","TLE_LINE1":"1 52702U 22053AY  22176.91667824 -.01052338  00000-0 -11256-1 0  9999","MEAN_MOTION_DOT":"-0.01052338","INCLINATION":"53.2175","SITE":"AFETR"},{"ECCENTRICITY":"0.00018830","GP_ID":"206858115","MEAN_MOTION_DDOT":"0.0000000000000","APOAPSIS":"350.781","MEAN_ANOMALY":"91.4882","CLASSIFICATION_TYPE":"U","OBJECT_NAME":"STARLINK-4020","OBJECT_ID":"2022-053AZ","SEMIMAJOR_AXIS":"6727.649","COUNTRY_CODE":"US","TLE_LINE1":"1 52703U 22053AZ  22176.91667824 -.00019951  00000-0 -13754-3 0  9990","MEAN_ELEMENT_THEORY":"SGP4","REF_FRAME":"TEME","INCLINATION":"53.2154","SITE":"AFETR","MEAN_MOTION_DOT":"-0.00019951","FILE":"3502557","DECAY_DATE":null,"ELEMENT_SET_NO":"999","MEAN_MOTION":"15.73286421","CENTER_NAME":"EARTH","OBJECT_TYPE":"PAYLOAD","TLE_LINE2":"2 52703  53.2154 107.3463 0001883  34.5743  91.4882 15.73286421  1304","ARG_OF_PERICENTER":"34.5743","PERIAPSIS":"348.247","REV_AT_EPOCH":"130","EPOCH":"2022-06-25T22:00:00.999936","NORAD_CAT_ID":"52703","BSTAR":"-0.00013754000000","EPHEMERIS_TYPE":"0","RA_OF_ASC_NODE":"107.3463","LAUNCH_DATE":"2022-05-18","PERIOD":"91.528","TIME_SYSTEM":"UTC","RCS_SIZE":"LARGE"},{"CENTER_NAME":"EARTH","MEAN_MOTION":"15.73267744","ELEMENT_SET_NO":"999","TLE_LINE2":"2 52704  53.2158 107.3519 0001493  49.6860  74.1073 15.73267744  1302","OBJECT_TYPE":"PAYLOAD","FILE":"3502557","DECAY_DATE":null,"RCS_SIZE":"LARGE","PERIOD":"91.529","LAUNCH_DATE":"2022-05-18","TIME_SYSTEM":"UTC","PERIAPSIS":"348.563","REV_AT_EPOCH":"130","ARG_OF_PERICENTER":"49.6860","EPHEMERIS_TYPE":"0","RA_OF_ASC_NODE":"107.3519","BSTAR":"-0.00064759000000","EPOCH":"2022-06-25T22:00:00.999936","NORAD_CAT_ID":"52704","CLASSIFICATION_TYPE":"U","OBJECT_NAME":"STARLINK-3999","MEAN_MOTION_DDOT":"0.0000000000000","GP_ID":"206857909","ECCENTRICITY":"0.00014930","MEAN_ANOMALY":"74.1073","APOAPSIS":"350.571","SITE":"AFETR","INCLINATION":"53.2158","MEAN_MOTION_DOT":"-0.00090795","MEAN_ELEMENT_THEORY":"SGP4","TLE_LINE1":"1 52704U 22053BA  22176.91667824 -.00090795  00000-0 -64759-3 0  9997","SEMIMAJOR_AXIS":"6727.702","COUNTRY_CODE":"US","OBJECT_ID":"2022-053BA","REF_FRAME":"TEME"},{"DECAY_DATE":null,"FILE":"3502557","TLE_LINE2":"2 52705  53.2154 107.3462 0001759  35.1573  90.3992 15.73253020  1304","OBJECT_TYPE":"PAYLOAD","MEAN_MOTION":"15.73253020","CENTER_NAME":"EARTH","ELEMENT_SET_NO":"999","EPHEMERIS_TYPE":"0","RA_OF_ASC_NODE":"107.3462","EPOCH":"2022-06-25T22:00:00.999936","NORAD_CAT_ID":"52705","BSTAR":"-0.00011542000000","PERIAPSIS":"348.426","REV_AT_EPOCH":"130","ARG_OF_PERICENTER":"35.1573","RCS_SIZE":"LARGE","TIME_SYSTEM":"UTC","LAUNCH_DATE":"2022-05-18","PERIOD":"91.530","MEAN_ANOMALY":"90.3992","APOAPSIS":"350.792","MEAN_MOTION_DDOT":"0.0000000000000","ECCENTRICITY":"0.00017590","GP_ID":"206858632","OBJECT_NAME":"STARLINK-3844","CLASSIFICATION_TYPE":"U","REF_FRAME":"TEME","SEMIMAJOR_AXIS":"6727.744","COUNTRY_CODE":"US","TLE_LINE1":"1 52705U 22053BB  22176.91667824 -.00016825  00000-0 -11542-3 0  9992","MEAN_ELEMENT_THEORY":"SGP4","OBJECT_ID":"2022-053BB","MEAN_MOTION_DOT":"-0.00016825","SITE":"AFETR","INCLINATION":"53.2154"},{"CLASSIFICATION_TYPE":"U","OBJECT_NAME":"STARLINK-3970","GP_ID":"206858359","ECCENTRICITY":"0.00019100","MEAN_MOTION_DDOT":"0.0000000000000","APOAPSIS":"350.998","MEAN_ANOMALY":"86.3388","INCLINATION":"53.2156","SITE":"AFETR","MEAN_MOTION_DOT":"0.00019513","OBJECT_ID":"2022-053BC","MEAN_ELEMENT_THEORY":"SGP4","TLE_LINE1":"1 52706U 22053BC  22176.91667824  .00019513  00000-0  14302-3 0  9995","SEMIMAJOR_AXIS":"6727.848","COUNTRY_CODE":"US","REF_FRAME":"TEME","ELEMENT_SET_NO":"999","CENTER_NAME":"EARTH","MEAN_MOTION":"15.73216587","OBJECT_TYPE":"PAYLOAD","TLE_LINE2":"2 52706  53.2156 107.3486 0001910  38.5405  86.3388 15.73216587  1304","FILE":"3502557","DECAY_DATE":null,"LAUNCH_DATE":"2022-05-18","PERIOD":"91.532","TIME_SYSTEM":"UTC","RCS_SIZE":"LARGE","PERIAPSIS":"348.428","ARG_OF_PERICENTER":"38.5405","REV_AT_EPOCH":"130","BSTAR":"0.00014302000000","NORAD_CAT_ID":"52706","EPOCH":"2022-06-25T22:00:00.999936","EPHEMERIS_TYPE":"0","RA_OF_ASC_NODE":"107.3486"}];
